ONEWEB-0710             
1 55173U 23004AK  24058.59017291  .00000109  00000+0  24759-3 0  9992
2 55173  87.9258 173.0966 0001582 111.8317 248.2983 13.17648830 56886
ONEWEB-0711             
1 55174U 23004AL  24058.61399608 -.00000490  00000+0 -14174-2 0  9995
2 55174  87.9018 188.1839 0002283 130.7690 229.3636 13.11414647 55661
ONEWEB-0713             
1 55175U 23004AM  24058.63185928  .00000007  00000+0 -14944-4 0  9996
2 55175  87.9023 188.1883 0001933 116.8840 243.2486 13.11420030 55650
ONEWEB-0715             
1 55176U 23004AN  24058.62698635 -.00000289  00000+0 -84982-3 0  9991
2 55176  87.9022 188.1894 0001895 110.6888 249.4443 13.11419760 55696
ONEWEB-0716             
1 55177U 23004AP  24058.81165709 -.00000021  00000+0 -87520-4 0  9990
2 55177  87.9263 173.0421 0001943  98.5651 261.5701 13.17649152 56913
ONEWEB-0717             
1 55178U 23004AQ  24058.56644596  .00000048  00000+0  90741-4 0  9995
2 55178  87.9260 173.0570 0001924 139.5781 220.5494 13.17650408 56937
ONEWEB-0719             
1 55179U 23004AR  24058.80532614 -.00000059  00000+0 -18438-3 0  9996
2 55179  87.9261 172.9963 0002134 107.7371 252.3993 13.17648789 56913
ONEWEB-0530             
1 55796U 23029A   24058.56886625  .00000098  00000+0  21024-3 0  9991
2 55796  87.9128  81.7776 0002181 109.3239 250.8130 13.20771118 50188
